COSMOS 1892             
1 18421U 87088A   25321.76433768  .00462416  96311-4  72003-3 0  9996
2 18421  82.4667  71.9251 0005958 274.1710  85.8889 16.04054865 87319
SL-14 R/B               
1 18749U 88001B   25322.39303140  .00000773  00000+0  86893-4 0  9997
2 18749  82.5107 300.0504 0016574 244.3913 115.5591 14.85386739 25508
COSMOS 1933             
1 18958U 88020A   25322.47849184  .00004682  00000+0  23659-3 0  9995
2 18958  82.5146   0.8463 0003448 204.6221 155.4848 15.16845374 33360
SL-3 R/B                
1 19046U 88032B   25322.48078492  .00007103  00000+0  34592-3 0  9993
2 19046  97.5053 301.3789 0024811 261.1652  98.6772 15.18400719 35228
SL-16 R/B               
1 19120U 88039B   25322.36647481  .00000036  00000+0  39809-4 0  9995
2 19120  71.0142 303.9338 0020783 156.6386 203.5688 14.19590357942588
COSMOS 1953             
1 19210U 88050A   25322.32288463  .00007185  00000+0  27304-3 0  9993
2 19210  82.5078 270.0733 0012828 146.8512 213.3533 15.26549444 20786
SL-8 R/B                
1 19257U 88053B   25322.49438259  .00000377  00000+0  13083-3 0  9990
2 19257  74.0467 317.4062 0019804 169.5560 308.0386 14.38839650960607
COSMOS 1975             
1 19573U 88093A   25322.25989028  .00010743  00000+0  41648-3 0  9990
2 19573  82.5220 229.3214 0010572 194.0575 166.0370 15.25955124  2403
SL-14 R/B               
1 19574U 88093B   25321.99752833  .00000680  00000+0  75585-4 0  9990
2 19574  82.5292 146.8868 0021946  50.4288  64.4423 14.85512645984450
SL-16 R/B               
1 19650U 88102B   25322.44225891  .00000176  00000+0  11319-3 0  9990
2 19650  71.0011  25.5673 0014464 189.3830 170.7025 14.16131189911145
INTERCOSMOS 24          
1 20261U 89080A   25322.11398962  .00000829  00000+0  24141-3 0  9992
2 20261  82.6060 176.9654 1188266 191.6397 165.4842 12.59382624652758
SL-14 R/B               
1 20262U 89080C   25322.26158221  .00000462  00000+0  13006-3 0  9992
2 20262  82.5937 244.7286 1231131  79.5131 294.2016 12.50386342646227
