CCSDS_OMM_VERS = 2.0
CREATION_DATE  = 
ORIGINATOR     = 

OBJECT_NAME    = COSMOS 1892
OBJECT_ID      = 1987-088A
CENTER_NAME    = EARTH
REF_FRAME      = TEME
TIME_SYSTEM    = UTC
MEAN_ELEMENT_THEORY = SGP/SGP4

EPOCH          = 2025-11-17T18:20:38.774688
MEAN_MOTION    = 16.04054865
ECCENTRICITY   = .0005959
INCLINATION    = 82.4667
RA_OF_ASC_NODE = 71.9251
ARG_OF_PERICENTER = 274.1710
MEAN_ANOMALY   = 85.8889

EPHEMERIS_TYPE = 0
CLASSIFICATION_TYPE = U
NORAD_CAT_ID   = 18421
ELEMENT_SET_NO = 999
REV_AT_EPOCH   = 8731
BSTAR          = .72003E-3
MEAN_MOTION_DOT = .462416E-2
MEAN_MOTION_DDOT = .96311E-4

CCSDS_OMM_VERS = 2.0
CREATION_DATE  = 
ORIGINATOR     = 

OBJECT_NAME    = SL-14 R/B
OBJECT_ID      = 1988-001B
CENTER_NAME    = EARTH
REF_FRAME      = TEME
TIME_SYSTEM    = UTC
MEAN_ELEMENT_THEORY = SGP/SGP4

EPOCH          = 2025-11-18T09:25:57.912960
MEAN_MOTION    = 14.85386739
ECCENTRICITY   = .0016574
INCLINATION    = 82.5107
RA_OF_ASC_NODE = 300.0504
ARG_OF_PERICENTER = 244.3913
MEAN_ANOMALY   = 115.5591

EPHEMERIS_TYPE = 0
CLASSIFICATION_TYPE = U
NORAD_CAT_ID   = 18749
ELEMENT_SET_NO = 999
REV_AT_EPOCH   = 2550
BSTAR          = .86893E-4
MEAN_MOTION_DOT = .773E-5
MEAN_MOTION_DDOT = 0

CCSDS_OMM_VERS = 2.0
CREATION_DATE  = 
ORIGINATOR     = 

OBJECT_NAME    = COSMOS 1933
OBJECT_ID      = 1988-020A
CENTER_NAME    = EARTH
REF_FRAME      = TEME
TIME_SYSTEM    = UTC
MEAN_ELEMENT_THEORY = SGP/SGP4

EPOCH          = 2025-11-18T11:29:01.694976
MEAN_MOTION    = 15.16845374
ECCENTRICITY   = .0003448
INCLINATION    = 82.5146
RA_OF_ASC_NODE = 0.8463
ARG_OF_PERICENTER = 204.6221
MEAN_ANOMALY   = 155.4848

EPHEMERIS_TYPE = 0
CLASSIFICATION_TYPE = U
NORAD_CAT_ID   = 18958
ELEMENT_SET_NO = 999
REV_AT_EPOCH   = 3336
BSTAR          = .23659E-3
MEAN_MOTION_DOT = .4682E-4
MEAN_MOTION_DDOT = 0

CCSDS_OMM_VERS = 2.0
CREATION_DATE  = 
ORIGINATOR     = 

OBJECT_NAME    = SL-3 R/B
OBJECT_ID      = 1988-032B
CENTER_NAME    = EARTH
REF_FRAME      = TEME
TIME_SYSTEM    = UTC
MEAN_ELEMENT_THEORY = SGP/SGP4

EPOCH          = 2025-11-18T11:32:19.817088
MEAN_MOTION    = 15.18400719
ECCENTRICITY   = .0024811
INCLINATION    = 97.5053
RA_OF_ASC_NODE = 301.3789
ARG_OF_PERICENTER = 261.1652
MEAN_ANOMALY   = 98.6772

EPHEMERIS_TYPE = 0
CLASSIFICATION_TYPE = U
NORAD_CAT_ID   = 19046
ELEMENT_SET_NO = 999
REV_AT_EPOCH   = 3522
BSTAR          = .34592E-3
MEAN_MOTION_DOT = .7103E-4
MEAN_MOTION_DDOT = 0

CCSDS_OMM_VERS = 2.0
CREATION_DATE  = 
ORIGINATOR     = 

OBJECT_NAME    = SL-16 R/B
OBJECT_ID      = 1988-039B
CENTER_NAME    = EARTH
REF_FRAME      = TEME
TIME_SYSTEM    = UTC
MEAN_ELEMENT_THEORY = SGP/SGP4

EPOCH          = 2025-11-18T08:47:43.423584
MEAN_MOTION    = 14.19590357
ECCENTRICITY   = .0020783
INCLINATION    = 71.0142
RA_OF_ASC_NODE = 303.9338
ARG_OF_PERICENTER = 156.6386
MEAN_ANOMALY   = 203.5688

EPHEMERIS_TYPE = 0
CLASSIFICATION_TYPE = U
NORAD_CAT_ID   = 19120
ELEMENT_SET_NO = 999
REV_AT_EPOCH   = 94258
BSTAR          = .39809E-4
MEAN_MOTION_DOT = .36E-6
MEAN_MOTION_DDOT = 0

CCSDS_OMM_VERS = 2.0
CREATION_DATE  = 
ORIGINATOR     = 

OBJECT_NAME    = COSMOS 1953
OBJECT_ID      = 1988-050A
CENTER_NAME    = EARTH
REF_FRAME      = TEME
TIME_SYSTEM    = UTC
MEAN_ELEMENT_THEORY = SGP/SGP4

EPOCH          = 2025-11-18T07:44:57.232032
MEAN_MOTION    = 15.26549444
ECCENTRICITY   = .0012828
INCLINATION    = 82.5078
RA_OF_ASC_NODE = 270.0733
ARG_OF_PERICENTER = 146.8512
MEAN_ANOMALY   = 213.3533

EPHEMERIS_TYPE = 0
CLASSIFICATION_TYPE = U
NORAD_CAT_ID   = 19210
ELEMENT_SET_NO = 999
REV_AT_EPOCH   = 2078
BSTAR          = .27304E-3
MEAN_MOTION_DOT = .7185E-4
MEAN_MOTION_DDOT = 0

CCSDS_OMM_VERS = 2.0
CREATION_DATE  = 
ORIGINATOR     = 

OBJECT_NAME    = SL-8 R/B
OBJECT_ID      = 1988-053B
CENTER_NAME    = EARTH
REF_FRAME      = TEME
TIME_SYSTEM    = UTC
MEAN_ELEMENT_THEORY = SGP/SGP4

EPOCH          = 2025-11-18T11:51:54.655776
MEAN_MOTION    = 14.38839650
ECCENTRICITY   = .0019804
INCLINATION    = 74.0467
RA_OF_ASC_NODE = 317.4062
ARG_OF_PERICENTER = 169.5560
MEAN_ANOMALY   = 308.0386

EPHEMERIS_TYPE = 0
CLASSIFICATION_TYPE = U
NORAD_CAT_ID   = 19257
ELEMENT_SET_NO = 999
REV_AT_EPOCH   = 96060
BSTAR          = .13083E-3
MEAN_MOTION_DOT = .377E-5
MEAN_MOTION_DDOT = 0

CCSDS_OMM_VERS = 2.0
CREATION_DATE  = 
ORIGINATOR     = 

OBJECT_NAME    = COSMOS 1975
OBJECT_ID      = 1988-093A
CENTER_NAME    = EARTH
REF_FRAME      = TEME
TIME_SYSTEM    = UTC
MEAN_ELEMENT_THEORY = SGP/SGP4

EPOCH          = 2025-11-18T06:14:14.520192
MEAN_MOTION    = 15.25955124
ECCENTRICITY   = .0010572
INCLINATION    = 82.5220
RA_OF_ASC_NODE = 229.3214
ARG_OF_PERICENTER = 194.0575
MEAN_ANOMALY   = 166.0370

EPHEMERIS_TYPE = 0
CLASSIFICATION_TYPE = U
NORAD_CAT_ID   = 19573
ELEMENT_SET_NO = 999
REV_AT_EPOCH   = 240
BSTAR          = .41648E-3
MEAN_MOTION_DOT = .10743E-3
MEAN_MOTION_DDOT = 0

CCSDS_OMM_VERS = 2.0
CREATION_DATE  = 
ORIGINATOR     = 

OBJECT_NAME    = SL-14 R/B
OBJECT_ID      = 1988-093B
CENTER_NAME    = EARTH
REF_FRAME      = TEME
TIME_SYSTEM    = UTC
MEAN_ELEMENT_THEORY = SGP/SGP4

EPOCH          = 2025-11-17T23:56:26.446848
MEAN_MOTION    = 14.85512645
ECCENTRICITY   = .0021947
INCLINATION    = 82.5292
RA_OF_ASC_NODE = 146.8868
ARG_OF_PERICENTER = 50.4288
MEAN_ANOMALY   = 64.4423

EPHEMERIS_TYPE = 0
CLASSIFICATION_TYPE = U
NORAD_CAT_ID   = 19574
ELEMENT_SET_NO = 999
REV_AT_EPOCH   = 98445
BSTAR          = .75585E-4
MEAN_MOTION_DOT = .68E-5
MEAN_MOTION_DDOT = 0

CCSDS_OMM_VERS = 2.0
CREATION_DATE  = 
ORIGINATOR     = 

OBJECT_NAME    = SL-16 R/B
OBJECT_ID      = 1988-102B
CENTER_NAME    = EARTH
REF_FRAME      = TEME
TIME_SYSTEM    = UTC
MEAN_ELEMENT_THEORY = SGP/SGP4

EPOCH          = 2025-11-18T10:36:51.169824
MEAN_MOTION    = 14.16131189
ECCENTRICITY   = .0014464
INCLINATION    = 71.0011
RA_OF_ASC_NODE = 25.5673
ARG_OF_PERICENTER = 189.3830
MEAN_ANOMALY   = 170.7025

EPHEMERIS_TYPE = 0
CLASSIFICATION_TYPE = U
NORAD_CAT_ID   = 19650
ELEMENT_SET_NO = 999
REV_AT_EPOCH   = 91114
BSTAR          = .11319E-3
MEAN_MOTION_DOT = .176E-5
MEAN_MOTION_DDOT = 0

CCSDS_OMM_VERS = 2.0
CREATION_DATE  = 
ORIGINATOR     = 

OBJECT_NAME    = INTERCOSMOS 24
OBJECT_ID      = 1989-080A
CENTER_NAME    = EARTH
REF_FRAME      = TEME
TIME_SYSTEM    = UTC
MEAN_ELEMENT_THEORY = SGP/SGP4

EPOCH          = 2025-11-18T02:44:08.703168
MEAN_MOTION    = 12.59382624
ECCENTRICITY   = .1188267
INCLINATION    = 82.6060
RA_OF_ASC_NODE = 176.9654
ARG_OF_PERICENTER = 191.6397
MEAN_ANOMALY   = 165.4842

EPHEMERIS_TYPE = 0
CLASSIFICATION_TYPE = U
NORAD_CAT_ID   = 20261
ELEMENT_SET_NO = 999
REV_AT_EPOCH   = 65275
BSTAR          = .24141E-3
MEAN_MOTION_DOT = .829E-5
MEAN_MOTION_DDOT = 0

CCSDS_OMM_VERS = 2.0
CREATION_DATE  = 
ORIGINATOR     = 

OBJECT_NAME    = SL-14 R/B
OBJECT_ID      = 1989-080C
CENTER_NAME    = EARTH
REF_FRAME      = TEME
TIME_SYSTEM    = UTC
MEAN_ELEMENT_THEORY = SGP/SGP4

EPOCH          = 2025-11-18T06:16:40.702944
MEAN_MOTION    = 12.50386342
ECCENTRICITY   = .1231131
INCLINATION    = 82.5937
RA_OF_ASC_NODE = 244.7286
ARG_OF_PERICENTER = 79.5131
MEAN_ANOMALY   = 294.2016

EPHEMERIS_TYPE = 0
CLASSIFICATION_TYPE = U
NORAD_CAT_ID   = 20262
ELEMENT_SET_NO = 999
REV_AT_EPOCH   = 64622
BSTAR          = .13006E-3
MEAN_MOTION_DOT = .462E-5
MEAN_MOTION_DDOT = 0

